{"type": "FeatureCollection", "features": [ {"type": "Feature", "properties": {"norad_id": 66593, "name": "STARLINK-36031", "group": "last-30-days", "lat": -25.113507048568867, "lon": 92.12351934654626, "alt_km": 346.711758789078, "timestamp": "2025-12-04T10:51:48.877128+00:00", "meta": {"OBJECT_NAME": "STARLINK-36031", "OBJECT_ID": "2025-270F", "EPOCH": "2025-12-04T02:19:52.045824", "MEAN_MOTION": 15.75329439, "ECCENTRICITY": 0.0001821, "INCLINATION": 42.9985, "RA_OF_ASC_NODE": 244.0801, "ARG_OF_PERICENTER": 274.0987, "MEAN_ANOMALY": 85.9674, "EPHEMERIS_TYPE": 0, "CLASSIFICATION_TYPE": "U", "NORAD_CAT_ID": 66593, "ELEMENT_SET_NO": 999, "REV_AT_EPOCH": 299, "BSTAR": -0.0042228, "MEAN_MOTION_DOT": -0.00612015, "MEAN_MOTION_DDOT": 0}, "tle": {"line1": "1 66593U 25270F   25338.09713016 -.00612015  00000+0 -42228-2 0  9999", "line2": "2 66593  42.9985 244.0801 0001821 274.0987  85.9674 15.75329439  2993"}}, "geometry": {"type": "Point", "coordinates": [92.12351934654626, -25.113507048568867]}}, {"type": "Feature", "properties": {"norad_id": 66594, "name": "STARLINK-36032", "group": "last-30-days", "lat": -35.35674170144773, "lon": 111.46938334731783, "alt_km": 333.2343017441817, "timestamp": "2025-12-04T10:51:48.877138+00:00", "meta": {"OBJECT_NAME": "STARLINK-36032", "OBJECT_ID": "2025-270G", "EPOCH": "2025-12-04T03:46:47.462592", "MEAN_MOTION": 15.77380004, "ECCENTRICITY": 0.0014658, "INCLINATION": 42.9975, "RA_OF_ASC_NODE": 243.6706, "ARG_OF_PERICENTER": 280.4782, "MEAN_ANOMALY": 79.4436, "EPHEMERIS_TYPE": 0, "CLASSIFICATION_TYPE": "U", "NORAD_CAT_ID": 66594, "ELEMENT_SET_NO": 999, "REV_AT_EPOCH": 281, "BSTAR": 0.0022053, "MEAN_MOTION_DOT": 0.00395318, "MEAN_MOTION_DDOT": 0}, "tle": {"line1": "1 66594U 25270G   25338.15749378  .00395318  00000+0  22053-2 0  9993", "line2": "2 66594  42.9975 243.6706 0014658 280.4782  79.4436 15.77380004  2810"}}, "geometry": {"type": "Point", "coordinates": [111.46938334731783, -35.35674170144773]}}, {"type": "Feature", "properties": {"norad_id": 66595, "name": "STARLINK-35711", "group": "last-30-days", "lat": -27.345486748451375, "lon": 95.62392999644291, "alt_km": 346.25927906814195, "timestamp": "2025-12-04T10:51:48.877148+00:00", "meta": {"OBJECT_NAME": "STARLINK-35711", "OBJECT_ID": "2025-270H", "EPOCH": "2025-12-04T02:18:53.152128", "MEAN_MOTION": 15.75289023, "ECCENTRICITY": 0.0002268, "INCLINATION": 42.998, "RA_OF_ASC_NODE": 244.0741, "ARG_OF_PERICENTER": 261.4999, "MEAN_ANOMALY": 98.5613, "EPHEMERIS_TYPE": 0, "CLASSIFICATION_TYPE": "U", "NORAD_CAT_ID": 66595, "ELEMENT_SET_NO": 999, "REV_AT_EPOCH": 310, "BSTAR": -0.0035171, "MEAN_MOTION_DOT": -0.00514801, "MEAN_MOTION_DDOT": 0}, "tle": {"line1": "1 66595U 25270H   25338.09644852 -.00514801  00000+0 -35171-2 0  9995", "line2": "2 66595  42.9980 244.0741 0002268 261.4999  98.5613 15.75289023  3103"}}, "geometry": {"type": "Point", "coordinates": [95.62392999644291, -27.345486748451375]}}, {"type": "Feature", "properties": {"norad_id": 66596, "name": "STARLINK-35811", "group": "last-30-days", "lat": -28.423416759223624, "lon": 97.41824098722753, "alt_km": 346.1451431187161, "timestamp": "2025-12-04T10:51:48.877158+00:00", "meta": {"OBJECT_NAME": "STARLINK-35811", "OBJECT_ID": "2025-270J", "EPOCH": "2025-12-04T02:18:24.169248", "MEAN_MOTION": 15.75271239, "ECCENTRICITY": 0.000233, "INCLINATION": 42.9981, "RA_OF_ASC_NODE": 244.0713, "ARG_OF_PERICENTER": 262.0236, "MEAN_ANOMALY": 98.0369, "EPHEMERIS_TYPE": 0, "CLASSIFICATION_TYPE": "U", "NORAD_CAT_ID": 66596, "ELEMENT_SET_NO": 999, "REV_AT_EPOCH": 310, "BSTAR": -0.002916, "MEAN_MOTION_DOT": -0.00430767, "MEAN_MOTION_DDOT": 0}, "tle": {"line1": "1 66596U 25270J   25338.09611307 -.00430767  00000+0 -29160-2 0  9994", "line2": "2 66596  42.9981 244.0713 0002330 262.0236  98.0369 15.75271239  3108"}}, "geometry": {"type": "Point", "coordinates": [97.41824098722753, -28.423416759223624]}}, {"type": "Feature", "properties": {"norad_id": 66597, "name": "STARLINK-35820", "group": "last-30-days", "lat": -37.497343485019684, "lon": 117.29033449837853, "alt_km": 334.5613128240475, "timestamp": "2025-12-04T10:51:48.877170+00:00", "meta": {"OBJECT_NAME": "STARLINK-35820", "OBJECT_ID": "2025-270K", "EPOCH": "2025-12-04T00:43:40.956096", "MEAN_MOTION": 15.80114671, "ECCENTRICITY": 0.0020286, "INCLINATION": 42.9983, "RA_OF_ASC_NODE": 244.4384, "ARG_OF_PERICENTER": 309.2244, "MEAN_ANOMALY": 50.6826, "EPHEMERIS_TYPE": 0, "CLASSIFICATION_TYPE": "U", "NORAD_CAT_ID": 66597, "ELEMENT_SET_NO": 999, "REV_AT_EPOCH": 309, "BSTAR": -0.014154, "MEAN_MOTION_DOT": -0.02411074, "MEAN_MOTION_DDOT": 0}, "tle": {"line1": "1 66597U 25270K   25338.03033514 -.02411074  00000+0 -14154-1 0  9995", "line2": "2 66597  42.9983 244.4384 0020286 309.2244  50.6826 15.80114671  3094"}}, "geometry": {"type": "Point", "coordinates": [117.29033449837853, -37.497343485019684]}}, {"type": "Feature", "properties": {"norad_id": 66598, "name": "STARLINK-35981", "group": "last-30-days", "lat": -32.69376541863676, "lon": 105.42509231362871, "alt_km": 330.65832358783155, "timestamp": "2025-12-04T10:51:48.877181+00:00", "meta": {"OBJECT_NAME": "STARLINK-35981", "OBJECT_ID": "2025-270L", "EPOCH": "2025-12-04T02:16:54.415200", "MEAN_MOTION": 15.76859458, "ECCENTRICITY": 0.001773, "INCLINATION": 42.9977, "RA_OF_ASC_NODE": 244.0629, "ARG_OF_PERICENTER": 256.2952, "MEAN_ANOMALY": 103.5944, "EPHEMERIS_TYPE": 0, "CLASSIFICATION_TYPE": "U", "NORAD_CAT_ID": 66598, "ELEMENT_SET_NO": 999, "REV_AT_EPOCH": 283, "BSTAR": 0.0028118, "MEAN_MOTION_DOT": 0.00500006, "MEAN_MOTION_DDOT": 0}, "tle": {"line1": "1 66598U 25270L   25338.09507425  .00500006  00000+0  28118-2 0  9995", "line2": "2 66598  42.9977 244.0629 0017730 256.2952 103.5944 15.76859458  2837"}}, "geometry": {"type": "Point", "coordinates": [105.42509231362871, -32.69376541863676]}}, {"type": "Feature", "properties": {"norad_id": 66599, "name": "STARLINK-35930", "group": "last-30-days", "lat": -31.495396766159836, "lon": 103.00612075100983, "alt_km": 346.8425508262726, "timestamp": "2025-12-04T10:51:48.877193+00:00", "meta": {"OBJECT_NAME": "STARLINK-35930", "OBJECT_ID": "2025-270M", "EPOCH": "2025-12-04T00:45:37.692864", "MEAN_MOTION": 15.75348253, "ECCENTRICITY": 0.0001986, "INCLINATION": 42.9984, "RA_OF_ASC_NODE": 244.4479, "ARG_OF_PERICENTER": 267.8069, "MEAN_ANOMALY": 92.2573, "EPHEMERIS_TYPE": 0, "CLASSIFICATION_TYPE": "U", "NORAD_CAT_ID": 66599, "ELEMENT_SET_NO": 999, "REV_AT_EPOCH": 298, "BSTAR": -0.0039524, "MEAN_MOTION_DOT": -0.00575796, "MEAN_MOTION_DDOT": 0}, "tle": {"line1": "1 66599U 25270M   25338.03168626 -.00575796  00000+0 -39524-2 0  9999", "line2": "2 66599  42.9984 244.4479 0001986 267.8069  92.2573 15.75348253  2989"}}, "geometry": {"type": "Point", "coordinates": [103.00612075100983, -31.495396766159836]}}, {"type": "Feature", "properties": {"norad_id": 66600, "name": "STARLINK-35980", "group": "last-30-days", "lat": -36.911254341502605, "lon": 115.57759937037613, "alt_km": 331.99382630520176, "timestamp": "2025-12-04T10:51:48.877205+00:00", "meta": {"OBJECT_NAME": "STARLINK-35980", "OBJECT_ID": "2025-270N", "EPOCH": "2025-12-04T03:46:22.937952", "MEAN_MOTION": 15.79349544, "ECCENTRICITY": 0.0018825, "INCLINATION": 43.0002, "RA_OF_ASC_NODE": 243.6684, "ARG_OF_PERICENTER": 318.1688, "MEAN_ANOMALY": 41.7743, "EPHEMERIS_TYPE": 0, "CLASSIFICATION_TYPE": "U", "NORAD_CAT_ID": 66600, "ELEMENT_SET_NO": 999, "REV_AT_EPOCH": 290, "BSTAR": 0.0025461, "MEAN_MOTION_DOT": 0.00507436, "MEAN_MOTION_DDOT": 0}, "tle": {"line1": "1 66600U 25270N   25338.15720993  .00507436  00000+0  25461-2 0  9995", "line2": "2 66600  43.0002 243.6684 0018825 318.1688  41.7743 15.79349544  2909"}}, "geometry": {"type": "Point", "coordinates": [115.57759937037613, -36.911254341502605]}}, {"type": "Feature", "properties": {"norad_id": 66601, "name": "STARLINK-35978", "group": "last-30-days", "lat": -33.51731384003898, "lon": 107.18548848958196, "alt_km": 342.7642363421719, "timestamp": "2025-12-04T10:51:48.877216+00:00", "meta": {"OBJECT_NAME": "STARLINK-35978", "OBJECT_ID": "2025-270P", "EPOCH": "2025-12-04T02:15:56.284416", "MEAN_MOTION": 15.75298164, "ECCENTRICITY": 0.0007111, "INCLINATION": 42.9977, "RA_OF_ASC_NODE": 244.0577, "ARG_OF_PERICENTER": 214.9985, "MEAN_ANOMALY": 145.0417, "EPHEMERIS_TYPE": 0, "CLASSIFICATION_TYPE": "U", "NORAD_CAT_ID": 66601, "ELEMENT_SET_NO": 999, "REV_AT_EPOCH": 283, "BSTAR": -0.0021838, "MEAN_MOTION_DOT": -0.00327668, "MEAN_MOTION_DDOT": 0}, "tle": {"line1": "1 66601U 25270P   25338.09440144 -.00327668  00000+0 -21838-2 0  9999", "line2": "2 66601  42.9977 244.0577 0007111 214.9985 145.0417 15.75298164  2839"}}, "geometry": {"type": "Point", "coordinates": [107.18548848958196, -33.51731384003898]}}, {"type": "Feature", "properties": {"norad_id": 66602, "name": "STARLINK-36050", "group": "last-30-days", "lat": -41.563689998516466, "lon": 133.94291316102837, "alt_km": 291.8559885964178, "timestamp": "2025-12-04T10:51:48.877226+00:00", "meta": {"OBJECT_NAME": "STARLINK-36050", "OBJECT_ID": "2025-270Q", "EPOCH": "2025-12-03T23:11:57.244992", "MEAN_MOTION": 15.81066635, "ECCENTRICITY": 0.0026419, "INCLINATION": 42.9973, "RA_OF_ASC_NODE": 244.8203, "ARG_OF_PERICENTER": 271.6989, "MEAN_ANOMALY": 88.0856, "EPHEMERIS_TYPE": 0, "CLASSIFICATION_TYPE": "U", "NORAD_CAT_ID": 66602, "ELEMENT_SET_NO": 999, "REV_AT_EPOCH": 287, "BSTAR": 0.036284, "MEAN_MOTION_DOT": 0.09497793, "MEAN_MOTION_DDOT": 0}, "tle": {"line1": "1 66602U 25270Q   25337.96663478  .09497793  00000+0  36284-1 0  9996", "line2": "2 66602  42.9973 244.8203 0026419 271.6989  88.0856 15.81066635  2876"}}, "geometry": {"type": "Point", "coordinates": [133.94291316102837, -41.563689998516466]}}]}